start=new Date('2022-01-12T00:00:00.000Z').valueOf();
sats=[{"OBJECT_NAME":"STARLINK-2715","PERIAPSIS":"546.467","TIME_SYSTEM":"UTC","SEMIMAJOR_AXIS":"6925.370","RA_OF_ASC_NODE":"66.9300","APOAPSIS":"548.004","MEAN_MOTION":"15.06392841","GP_ID":"193663803","MEAN_ELEMENT_THEORY":"SGP4","ARG_OF_PERICENTER":"73.9635","INCLINATION":"53.0567","ECCENTRICITY":"0.00011090","REF_FRAME":"TEME","MEAN_MOTION_DOT":"-0.00001951","COUNTRY_CODE":"US","BSTAR":"-0.00011217000000","TLE_LINE2":"2 48697  53.0567  66.9300 0001109  73.9635 286.1476 15.06392841 35304","LAUNCH_DATE":"2021-05-26","EPOCH":"2022-01-11T12:34:44.588352","SITE":"AFETR","CENTER_NAME":"EARTH","ELEMENT_SET_NO":"999","CLASSIFICATION_TYPE":"U","MEAN_ANOMALY":"286.1476","FILE":"3269657","OBJECT_ID":"2021-044BM","OBJECT_TYPE":"PAYLOAD","EPHEMERIS_TYPE":"0","NORAD_CAT_ID":"48697","REV_AT_EPOCH":"3530","PERIOD":"95.593","MEAN_MOTION_DDOT":"0.0000000000000","DECAY_DATE":null,"TLE_LINE1":"1 48697U 21044BM  22011.52412718 -.00001951  00000-0 -11217-3 0  9994","RCS_SIZE":"LARGE"},{"TIME_SYSTEM":"UTC","OBJECT_NAME":"STARLINK-3003","PERIAPSIS":"515.855","SEMIMAJOR_AXIS":"6896.105","MEAN_MOTION":"15.15992157","APOAPSIS":"520.085","RA_OF_ASC_NODE":"143.8784","GP_ID":"193668740","INCLINATION":"97.5260","MEAN_ELEMENT_THEORY":"SGP4","ARG_OF_PERICENTER":"335.1522","REF_FRAME":"TEME","ECCENTRICITY":"0.00030670","COUNTRY_CODE":"US","MEAN_MOTION_DOT":"-0.00047376","BSTAR":"-0.00248160000000","TLE_LINE2":"2 48879  97.5260 143.8784 0003067 335.1522  85.0394 15.15992157 30804","EPOCH":"2022-01-11T22:00:00.999936","LAUNCH_DATE":"2021-06-30","CLASSIFICATION_TYPE":"U","ELEMENT_SET_NO":"999","MEAN_ANOMALY":"85.0394","SITE":"AFETR","CENTER_NAME":"EARTH","OBJECT_ID":"2021-059A","OBJECT_TYPE":"PAYLOAD","FILE":"3269858","PERIOD":"94.987","EPHEMERIS_TYPE":"0","NORAD_CAT_ID":"48879","REV_AT_EPOCH":"3080","MEAN_MOTION_DDOT":"0.0000000000000","DECAY_DATE":null,"RCS_SIZE":"LARGE","TLE_LINE1":"1 48879U 21059A   22011.91667824 -.00047376  00000-0 -24816-2 0  9994"},{"SITE":"AFETR","CENTER_NAME":"EARTH","MEAN_ANOMALY":"300.2309","CLASSIFICATION_TYPE":"U","ELEMENT_SET_NO":"999","LAUNCH_DATE":"2021-06-30","EPOCH":"2022-01-11T22:00:00.999936","TLE_LINE2":"2 48880  97.5259 143.8863 0003015 139.4246 300.2309 15.15979040 30807","BSTAR":"-0.00130600000000","RCS_SIZE":"LARGE","TLE_LINE1":"1 48880U 21059B   22011.91667824 -.00025031  00000-0 -13060-2 0  9999","MEAN_MOTION_DDOT":"0.0000000000000","DECAY_DATE":null,"NORAD_CAT_ID":"48880","REV_AT_EPOCH":"3080","EPHEMERIS_TYPE":"0","PERIOD":"94.988","FILE":"3269772","OBJECT_TYPE":"PAYLOAD","OBJECT_ID":"2021-059B","APOAPSIS":"520.089","MEAN_MOTION":"15.15979040","RA_OF_ASC_NODE":"143.8863","SEMIMAJOR_AXIS":"6896.145","PERIAPSIS":"515.931","OBJECT_NAME":"STARLINK-3004","TIME_SYSTEM":"UTC","COUNTRY_CODE":"US","MEAN_MOTION_DOT":"-0.00025031","ECCENTRICITY":"0.00030150","REF_FRAME":"TEME","ARG_OF_PERICENTER":"139.4246","MEAN_ELEMENT_THEORY":"SGP4","INCLINATION":"97.5259","GP_ID":"193666339"},{"PERIOD":"94.988","EPHEMERIS_TYPE":"0","REV_AT_EPOCH":"359","NORAD_CAT_ID":"48881","DECAY_DATE":null,"MEAN_MOTION_DDOT":"0.0000000000000","RCS_SIZE":"LARGE","TLE_LINE1":"1 48881U 21059C   22011.91667824 -.00024551  00000-0 -12810-2 0  9998","OBJECT_ID":"2021-059C","OBJECT_TYPE":"PAYLOAD","FILE":"3269987","ELEMENT_SET_NO":"999","CLASSIFICATION_TYPE":"U","MEAN_ANOMALY":"300.0594","SITE":"AFETR","CENTER_NAME":"EARTH","BSTAR":"-0.00128100000000","TLE_LINE2":"2 48881  97.5264 143.8968 0001447 131.7046 300.0594 15.15977494  3591","EPOCH":"2022-01-11T22:00:00.999936","LAUNCH_DATE":"2021-06-30","REF_FRAME":"TEME","ECCENTRICITY":"0.00014470","COUNTRY_CODE":"US","MEAN_MOTION_DOT":"-0.00024551","GP_ID":"193694878","INCLINATION":"97.5264","MEAN_ELEMENT_THEORY":"SGP4","ARG_OF_PERICENTER":"131.7046","APOAPSIS":"519.012","MEAN_MOTION":"15.15977494","RA_OF_ASC_NODE":"143.8968","TIME_SYSTEM":"UTC","PERIAPSIS":"517.017","OBJECT_NAME":"STARLINK-3005","SEMIMAJOR_AXIS":"6896.150"},{"OBJECT_ID":"2021-082B","OBJECT_TYPE":"PAYLOAD","FILE":"3269987","DECAY_DATE":null,"MEAN_MOTION_DDOT":"0.0000000000000","RCS_SIZE":"LARGE","TLE_LINE1":"1 49131U 21082B   22011.91667824  .00004916  00000-0  42981-4 0  9998","PERIOD":"91.736","EPHEMERIS_TYPE":"0","NORAD_CAT_ID":"49131","REV_AT_EPOCH":"367","EPOCH":"2022-01-11T22:00:00.999936","LAUNCH_DATE":"2021-09-14","BSTAR":"0.00004298100000","TLE_LINE2":"2 49131  69.9980 150.1706 0003609 283.5535  11.2256 15.69719739  3670","CLASSIFICATION_TYPE":"U","ELEMENT_SET_NO":"999","MEAN_ANOMALY":"11.2256","CENTER_NAME":"EARTH","SITE":"AFWTR","INCLINATION":"69.9980","MEAN_ELEMENT_THEORY":"SGP4","ARG_OF_PERICENTER":"283.5535","GP_ID":"193695406","COUNTRY_CODE":"US","MEAN_MOTION_DOT":"0.00004916","REF_FRAME":"TEME","ECCENTRICITY":"0.00036090","SEMIMAJOR_AXIS":"6737.836","TIME_SYSTEM":"UTC","PERIAPSIS":"357.269","OBJECT_NAME":"STARLINK-3096","MEAN_MOTION":"15.69719739","APOAPSIS":"362.133","RA_OF_ASC_NODE":"150.1706"},{"RA_OF_ASC_NODE":"161.2975","APOAPSIS":"574.200","MEAN_MOTION":"14.98323062","SEMIMAJOR_AXIS":"6950.214","TIME_SYSTEM":"UTC","OBJECT_NAME":"STARLINK-3090","PERIAPSIS":"569.959","COUNTRY_CODE":"US","MEAN_MOTION_DOT":"0.00004127","REF_FRAME":"TEME","ECCENTRICITY":"0.00030510","INCLINATION":"69.9992","MEAN_ELEMENT_THEORY":"SGP4","ARG_OF_PERICENTER":"276.2943","GP_ID":"193695650","ELEMENT_SET_NO":"999","CLASSIFICATION_TYPE":"U","MEAN_ANOMALY":"325.8957","CENTER_NAME":"EARTH","SITE":"AFWTR","EPOCH":"2022-01-11T22:00:00.999936","LAUNCH_DATE":"2021-09-14","BSTAR":"0.00035356000000","TLE_LINE2":"2 49132  69.9992 161.2975 0003051 276.2943 325.8957 14.98323062  3570","DECAY_DATE":null,"MEAN_MOTION_DDOT":"0.0000000000000","RCS_SIZE":"LARGE","TLE_LINE1":"1 49132U 21082C   22011.91667824  .00004127  00000-0  35356-3 0  9990","PERIOD":"96.107","EPHEMERIS_TYPE":"0","REV_AT_EPOCH":"357","NORAD_CAT_ID":"49132","OBJECT_ID":"2021-082C","OBJECT_TYPE":"PAYLOAD","FILE":"3269987"},{"GP_ID":"193693906","ARG_OF_PERICENTER":"272.2769","MEAN_ELEMENT_THEORY":"SGP4","INCLINATION":"69.9997","ECCENTRICITY":"0.00031440","REF_FRAME":"TEME","MEAN_MOTION_DOT":"0.00001709","COUNTRY_CODE":"US","PERIAPSIS":"569.900","OBJECT_NAME":"STARLINK-3077","TIME_SYSTEM":"UTC","SEMIMAJOR_AXIS":"6950.220","APOAPSIS":"574.270","MEAN_MOTION":"14.98321202","RA_OF_ASC_NODE":"161.2974","FILE":"3269987","OBJECT_TYPE":"PAYLOAD","OBJECT_ID":"2021-082D","REV_AT_EPOCH":"357","NORAD_CAT_ID":"49133","EPHEMERIS_TYPE":"0","PERIOD":"96.108","TLE_LINE1":"1 49133U 21082D   22011.91667824  .00001709  00000-0  15103-3 0  9992","RCS_SIZE":"LARGE","MEAN_MOTION_DDOT":"0.0000000000000","DECAY_DATE":null,"TLE_LINE2":"2 49133  69.9997 161.2974 0003144 272.2769 355.6282 14.98321202  3576","BSTAR":"0.00015103000000","LAUNCH_DATE":"2021-09-14","EPOCH":"2022-01-11T22:00:00.999936","CENTER_NAME":"EARTH","SITE":"AFWTR","MEAN_ANOMALY":"355.6282","CLASSIFICATION_TYPE":"U","ELEMENT_SET_NO":"999"},{"CENTER_NAME":"EARTH","SITE":"AFWTR","MEAN_ANOMALY":"18.6493","ELEMENT_SET_NO":"999","CLASSIFICATION_TYPE":"U","LAUNCH_DATE":"2021-09-14","EPOCH":"2022-01-11T22:00:00.999936","TLE_LINE2":"2 49134  69.9984 161.2964 0003197 274.9327  18.6493 14.98349296  3572","BSTAR":"-0.00001403500000","TLE_LINE1":"1 49134U 21082E   22011.91667824 -.00000261  00000-0 -14035-4 0  9991","RCS_SIZE":"LARGE","MEAN_MOTION_DDOT":"0.0000000000000","DECAY_DATE":null,"REV_AT_EPOCH":"357","NORAD_CAT_ID":"49134","EPHEMERIS_TYPE":"0","PERIOD":"96.106","FILE":"3269987","OBJECT_TYPE":"PAYLOAD","OBJECT_ID":"2021-082E","MEAN_MOTION":"14.98349296","APOAPSIS":"574.220","RA_OF_ASC_NODE":"161.2964","SEMIMAJOR_AXIS":"6950.133","PERIAPSIS":"569.776","OBJECT_NAME":"STARLINK-3078","TIME_SYSTEM":"UTC","MEAN_MOTION_DOT":"-0.00000261","COUNTRY_CODE":"US","ECCENTRICITY":"0.00031970","REF_FRAME":"TEME","ARG_OF_PERICENTER":"274.9327","MEAN_ELEMENT_THEORY":"SGP4","INCLINATION":"69.9984","GP_ID":"193694650"},{"OBJECT_ID":"2021-082F","OBJECT_TYPE":"PAYLOAD","FILE":"3269987","PERIOD":"91.733","EPHEMERIS_TYPE":"0","NORAD_CAT_ID":"49135","REV_AT_EPOCH":"368","MEAN_MOTION_DDOT":"0.0000000000000","DECAY_DATE":null,"RCS_SIZE":"LARGE","TLE_LINE1":"1 49135U 21082F   22011.91667824  .00005903  00000-0  51150-4 0  9997","BSTAR":"0.00005115000000","TLE_LINE2":"2 49135  69.9982 150.1621 0003473 289.0559  12.0068 15.69768362  3685","EPOCH":"2022-01-11T22:00:00.999936","LAUNCH_DATE":"2021-09-14","ELEMENT_SET_NO":"999","CLASSIFICATION_TYPE":"U","MEAN_ANOMALY":"12.0068","CENTER_NAME":"EARTH","SITE":"AFWTR","GP_ID":"193694907","INCLINATION":"69.9982","MEAN_ELEMENT_THEORY":"SGP4","ARG_OF_PERICENTER":"289.0559","REF_FRAME":"TEME","ECCENTRICITY":"0.00034730","MEAN_MOTION_DOT":"0.00005903","COUNTRY_CODE":"US","TIME_SYSTEM":"UTC","OBJECT_NAME":"STARLINK-3073","PERIAPSIS":"357.222","SEMIMAJOR_AXIS":"6737.697","RA_OF_ASC_NODE":"150.1621","APOAPSIS":"361.902","MEAN_MOTION":"15.69768362"},{"SEMIMAJOR_AXIS":"6737.786","TIME_SYSTEM":"UTC","OBJECT_NAME":"STARLINK-3084","PERIAPSIS":"357.061","RA_OF_ASC_NODE":"150.1680","APOAPSIS":"362.240","MEAN_MOTION":"15.69737325","INCLINATION":"69.9966","MEAN_ELEMENT_THEORY":"SGP4","ARG_OF_PERICENTER":"283.0897","GP_ID":"193695151","COUNTRY_CODE":"US","MEAN_MOTION_DOT":"0.00006256","REF_FRAME":"TEME","ECCENTRICITY":"0.00038430","EPOCH":"2022-01-11T22:00:00.999936","LAUNCH_DATE":"2021-09-14","BSTAR":"0.00005416800000","TLE_LINE2":"2 49136  69.9966 150.1680 0003843 283.0897  15.7703 15.69737325  3684","ELEMENT_SET_NO":"999","CLASSIFICATION_TYPE":"U","MEAN_ANOMALY":"15.7703","SITE":"AFWTR","CENTER_NAME":"EARTH","OBJECT_ID":"2021-082G","OBJECT_TYPE":"PAYLOAD","FILE":"3269987","DECAY_DATE":null,"MEAN_MOTION_DDOT":"0.0000000000000","RCS_SIZE":"LARGE","TLE_LINE1":"1 49136U 21082G   22011.91667824  .00006256  00000-0  54168-4 0  9992","PERIOD":"91.735","EPHEMERIS_TYPE":"0","NORAD_CAT_ID":"49136","REV_AT_EPOCH":"368"}];
